{
  "type": "FeatureCollection",
  "features": [
    {
      "type": "Feature",
      "properties": { "name": "Antarctica Simplified Coastline" },
      "geometry": {
        "type": "Polygon",
        "coordinates": [
          [
            [70.0, -68.0], [72.0, -68.5], [74.0, -68.8], [76.0, -69.2], [78.0, -69.5], [80.0, -69.1],
            [82.0, -68.7], [85.0, -69.5], [88.0, -70.2], [90.0, -71.0], [85.0, -72.5], [80.0, -73.0],
            [75.0, -73.5], [70.0, -72.0], [68.0, -70.5], [70.0, -68.0]
          ]
        ]
      }
    },
    {
      "type": "Feature",
      "properties": { "name": "Prydz Bay Coastline Shelf" },
      "geometry": {
        "type": "LineString",
        "coordinates": [
          [68.0, -67.5], [71.5, -68.2], [74.5, -68.6], [76.2, -69.4], [78.5, -69.2], [82.0, -68.4]
        ]
      }
    }
  ]
}
